<?xml version="1.0" encoding="UTF-8"?>
<gpx version="1.1" creator="LiDAR Analysis Engine" xmlns="http://www.topografix.com/GPX/1/1">
  <wpt lat="42.9177" lon="-88.8545"><name>Panther Intaglio, Fort Atkinson (WI)</name><desc>Effigy / linear. Approximate location; search for: Panther Intaglio, Fort Atkinson, Wisconsin</desc></wpt>
  <wpt lat="43.076" lon="-89.4085"><name>Observatory Hill Mounds, UW-Madison (WI)</name><desc>Effigy / linear. Approximate location; search for: Observatory Hill, Madison, Wisconsin</desc></wpt>
  <wpt lat="43.089" lon="-89.417"><name>Picnic Point Mounds, UW-Madison (WI)</name><desc>Mounds. Approximate location; search for: Picnic Point, Madison, Wisconsin</desc></wpt>
  <wpt lat="43.088" lon="-89.43"><name>Eagle Heights Mounds, UW-Madison (WI)</name><desc>Mounds + effigy / linear. Approximate location; search for: Eagle Heights Woods, Madison, Wisconsin</desc></wpt>
  <wpt lat="43.045" lon="-89.43"><name>UW Arboretum Mounds, Madison (WI)</name><desc>Mounds + effigy / linear. Approximate location; search for: University of Wisconsin Arboretum, Madison</desc></wpt>
  <wpt lat="43.059" lon="-89.413"><name>Vilas Park Effigy Mounds, Madison (WI)</name><desc>Effigy / linear. Approximate location; search for: Vilas Park, Madison, Wisconsin</desc></wpt>
  <wpt lat="43.063" lon="-89.429"><name>Forest Hill Cemetery Mounds, Madison (WI)</name><desc>Effigy / linear. Approximate location; search for: Forest Hill Cemetery, Madison, Wisconsin</desc></wpt>
  <wpt lat="43.058" lon="-89.42"><name>Edgewood College Mound Group, Madison (WI)</name><desc>Mounds + effigy / linear. Approximate location; search for: Edgewood College, Madison, Wisconsin</desc></wpt>
  <wpt lat="43.09" lon="-89.346"><name>Elmside Circle Park Mounds, Madison (WI)</name><desc>Effigy / linear. Approximate location; search for: Elmside Circle Park, Madison, Wisconsin</desc></wpt>
  <wpt lat="43.0893" lon="-89.35"><name>Hudson Park Lynx Effigy, Madison (WI)</name><desc>Effigy / linear. Approximate location; search for: Hudson Park, Madison, Wisconsin</desc></wpt>
  <wpt lat="43.118" lon="-89.495"><name>Pheasant Branch Conservancy Mounds, Middleton (WI)</name><desc>Mounds + effigy / linear. Approximate location; search for: Pheasant Branch Conservancy, Middleton, Wisconsin</desc></wpt>
  <wpt lat="42.975" lon="-89.235"><name>Lake Kegonsa State Park Mounds (WI)</name><desc>Mounds + effigy / linear. Approximate location; search for: Lake Kegonsa State Park, Wisconsin</desc></wpt>
  <wpt lat="43.013" lon="-88.233"><name>Cutler Park Mounds, Waukesha (WI)</name><desc>Mounds. Approximate location; search for: Cutler Park, Waukesha, Wisconsin</desc></wpt>
  <wpt lat="42.737" lon="-91.023"><name>Nelson Dewey State Park Mounds (WI)</name><desc>Mounds + effigy / linear. Approximate location; search for: Nelson Dewey State Park, Wisconsin</desc></wpt>
  <wpt lat="44.015" lon="-91.475"><name>Perrot State Park Mounds (WI)</name><desc>Mounds + effigy / linear. Approximate location; search for: Perrot State Park, Wisconsin</desc></wpt>
  <wpt lat="44.005" lon="-91.44"><name>Trempealeau Platform Mounds, Little Bluff (WI)</name><desc>Mounds. Approximate location; search for: Little Bluff, Trempealeau, Wisconsin</desc></wpt>
  <wpt lat="43.195" lon="-90.44"><name>Muscoda Mounds (WI)</name><desc>Effigy / linear. Approximate location; search for: Muscoda Mounds, Wisconsin</desc></wpt>
  <wpt lat="44.1" lon="-88.3"><name>Calumet County Park Effigy Mounds (WI)</name><desc>Effigy / linear. Approximate location; search for: Calumet County Park, Wisconsin</desc></wpt>
  <wpt lat="43.054" lon="-91.182"><name>Marching Bear Group, Effigy Mounds NM (IA)</name><desc>Effigy / linear. Approximate location; search for: Marching Bear Group, Iowa</desc></wpt>
  <wpt lat="43.101" lon="-91.179"><name>Great Bear Mound Group, Effigy Mounds NM (IA)</name><desc>Effigy / linear. Approximate location; search for: Great Bear Mound Group, Iowa</desc></wpt>
  <wpt lat="42.938" lon="-91.164"><name>Sny Magill Unit, Effigy Mounds NM (IA)</name><desc>Mounds + effigy / linear. Approximate location; search for: Sny Magill Mound Group, Iowa</desc></wpt>
  <wpt lat="42.997" lon="-91.164"><name>Pikes Peak State Park Mounds (IA)</name><desc>Effigy / linear. Approximate location; search for: Pikes Peak State Park, Iowa</desc></wpt>
  <wpt lat="41.149" lon="-91.046"><name>Toolesboro Indian Mounds (IA)</name><desc>Mounds. Approximate location; search for: Toolesboro Mounds, Iowa</desc></wpt>
  <wpt lat="43.478" lon="-91.29"><name>Fish Farm Mounds State Preserve (IA)</name><desc>Mounds. Approximate location; search for: Fish Farm Mounds, Iowa</desc></wpt>
  <wpt lat="42.712" lon="-91.04"><name>Turkey River Mounds State Preserve (IA)</name><desc>Mounds + effigy / linear. Approximate location; search for: Turkey River Mounds, Iowa</desc></wpt>
  <wpt lat="41.035" lon="-91.07"><name>Malchow Mounds State Preserve (IA)</name><desc>Mounds. Approximate location; search for: Malchow Mounds, Iowa</desc></wpt>
  <wpt lat="43.44" lon="-91.35"><name>Slinde Mounds State Preserve (IA)</name><desc>Mounds. Approximate location; search for: Slinde Mounds, Iowa</desc></wpt>
  <wpt lat="42.46" lon="-90.64"><name>Mines of Spain Mounds, Dubuque (IA)</name><desc>Mounds. Approximate location; search for: Mines of Spain State Recreation Area, Iowa</desc></wpt>
  <wpt lat="48.515" lon="-93.715"><name>Grand Mound, Laurel (MN)</name><desc>Mounds. Approximate location; search for: Grand Mound, Minnesota</desc></wpt>
  <wpt lat="38.6575" lon="-90.0618"><name>Cahokia Twin Mounds (IL)</name><desc>Mounds. Approximate location; search for: Twin Mounds, Cahokia Mounds, Illinois</desc></wpt>
  <wpt lat="38.659" lon="-90.075"><name>Cahokia Woodhenge area (IL)</name><desc>Mounds. Approximate location; search for: Woodhenge, Cahokia Mounds, Illinois</desc></wpt>
  <wpt lat="38.647" lon="-90.064"><name>Cahokia Rattlesnake Mound (IL)</name><desc>Mounds. Approximate location; search for: Rattlesnake Mound, Cahokia, Illinois</desc></wpt>
  <wpt lat="40.352" lon="-90.092"><name>Dickson Mounds (IL)</name><desc>Mounds. Approximate location; search for: Dickson Mounds Museum, Illinois</desc></wpt>
  <wpt lat="41.782" lon="-90.219"><name>Albany Mounds State Historic Site (IL)</name><desc>Mounds. Approximate location; search for: Albany Mounds, Illinois</desc></wpt>
  <wpt lat="42.274" lon="-89.093"><name>Beattie Park Mounds, Rockford (IL)</name><desc>Mounds + effigy / linear. Approximate location; search for: Beattie Park, Rockford, Illinois</desc></wpt>
  <wpt lat="41.423" lon="-88.237"><name>Briscoe Mounds, Channahon (IL)</name><desc>Mounds. Approximate location; search for: Briscoe Mounds, Channahon, Illinois</desc></wpt>
  <wpt lat="39.916" lon="-91.388"><name>Indian Mounds Park, Quincy (IL)</name><desc>Mounds. Approximate location; search for: Indian Mounds Park, Quincy, Illinois</desc></wpt>
  <wpt lat="41.783" lon="-89.675"><name>Sinnissippi Mounds, Sterling (IL)</name><desc>Mounds + effigy / linear. Approximate location; search for: Sinnissippi Mounds, Sterling, Illinois</desc></wpt>
  <wpt lat="39.36" lon="-83.087"><name>Hopewell Mound Group (OH)</name><desc>Mounds. Approximate location; search for: Hopewell Mound Group, Ohio</desc></wpt>
  <wpt lat="39.239" lon="-83.22"><name>Seip Earthworks (OH)</name><desc>Mounds. Approximate location; search for: Seip Earthworks, Ohio</desc></wpt>
  <wpt lat="39.383" lon="-82.995"><name>Hopeton Earthworks (OH)</name><desc>Mounds + effigy / linear. Approximate location; search for: Hopeton Earthworks, Ohio</desc></wpt>
  <wpt lat="39.309" lon="-82.936"><name>High Bank Works (OH)</name><desc>Mounds + effigy / linear. Approximate location; search for: High Bank Works, Ohio</desc></wpt>
  <wpt lat="40.041" lon="-82.445"><name>Newark Great Circle Earthworks (OH)</name><desc>Mounds + effigy / linear. Approximate location; search for: Great Circle Earthworks, Newark, Ohio</desc></wpt>
  <wpt lat="40.055" lon="-82.444"><name>Newark Octagon Earthworks (OH)</name><desc>Mounds + effigy / linear. Approximate location; search for: Octagon Earthworks, Newark, Ohio</desc></wpt>
  <wpt lat="39.402" lon="-84.09"><name>Fort Ancient Earthworks (OH)</name><desc>Mounds + effigy / linear. Approximate location; search for: Fort Ancient, Ohio</desc></wpt>
  <wpt lat="39.12" lon="-83.398"><name>Fort Hill Earthworks (OH)</name><desc>Mounds + effigy / linear. Approximate location; search for: Fort Hill Earthworks, Ohio</desc></wpt>
  <wpt lat="40.069" lon="-82.503"><name>Alligator Mound, Granville (OH)</name><desc>Effigy / linear. Approximate location; search for: Alligator Mound, Granville, Ohio</desc></wpt>
  <wpt lat="39.556" lon="-82.773"><name>Tarlton Cross Mound (OH)</name><desc>Effigy / linear. Approximate location; search for: Tarlton Cross Mound, Ohio</desc></wpt>
  <wpt lat="39.306" lon="-83.02"><name>Junction Group Earthworks, Chillicothe (OH)</name><desc>Mounds + effigy / linear. Approximate location; search for: Junction Group, Chillicothe, Ohio</desc></wpt>
  <wpt lat="39.329" lon="-82.987"><name>Story Mound, Chillicothe (OH)</name><desc>Mounds. Approximate location; search for: Story Mound, Chillicothe, Ohio</desc></wpt>
  <wpt lat="39.417" lon="-81.453"><name>Mound Cemetery (Conus), Marietta (OH)</name><desc>Mounds. Approximate location; search for: Mound Cemetery, Marietta, Ohio</desc></wpt>
  <wpt lat="39.422" lon="-81.458"><name>Marietta Earthworks, Quadranaou (OH)</name><desc>Mounds. Approximate location; search for: Quadranaou, Marietta, Ohio</desc></wpt>
  <wpt lat="39.879" lon="-83.937"><name>Enon Mound (OH)</name><desc>Mounds. Approximate location; search for: Enon Mound, Ohio</desc></wpt>
  <wpt lat="39.9985" lon="-83.07"><name>Shrum Mound, Columbus (OH)</name><desc>Mounds. Approximate location; search for: Shrum Mound, Columbus, Ohio</desc></wpt>
  <wpt lat="40.017" lon="-83.095"><name>Campbell Mound, Columbus (OH)</name><desc>Mounds. Approximate location; search for: Campbell Mound, Columbus, Ohio</desc></wpt>
  <wpt lat="40.15" lon="-83.03"><name>Highbanks Metro Park Mounds (OH)</name><desc>Mounds. Approximate location; search for: Highbanks Metro Park, Ohio</desc></wpt>
  <wpt lat="39.732" lon="-83.836"><name>Indian Mound Reserve (Williamson Mound), Cedarville (OH)</name><desc>Mounds. Approximate location; search for: Indian Mound Reserve, Cedarville, Ohio</desc></wpt>
  <wpt lat="39.807" lon="-83.885"><name>Orators Mound, Glen Helen (OH)</name><desc>Mounds. Approximate location; search for: Orators Mound, Yellow Springs, Ohio</desc></wpt>
  <wpt lat="39.105" lon="-84.818"><name>Miami Fort, Shawnee Lookout (OH)</name><desc>Mounds + effigy / linear. Approximate location; search for: Shawnee Lookout Park, Ohio</desc></wpt>
  <wpt lat="39.059" lon="-83.01"><name>Piketon Mounds (OH)</name><desc>Mounds. Approximate location; search for: Piketon Mounds, Ohio</desc></wpt>
  <wpt lat="40.097" lon="-85.619"><name>Mounds State Park, Great Mound (IN)</name><desc>Mounds + effigy / linear. Approximate location; search for: Mounds State Park, Anderson, Indiana</desc></wpt>
  <wpt lat="39.94" lon="-85.39"><name>New Castle Earthworks (IN)</name><desc>Mounds. Approximate location; search for: New Castle Earthworks, Indiana</desc></wpt>
  <wpt lat="38.664" lon="-87.509"><name>Sonotabac Mound, Vincennes (IN)</name><desc>Mounds. Approximate location; search for: Sonotabac Mound, Vincennes, Indiana</desc></wpt>
  <wpt lat="36.97" lon="-89.089"><name>Wickliffe Mounds (KY)</name><desc>Mounds. Approximate location; search for: Wickliffe Mounds, Kentucky</desc></wpt>
  <wpt lat="38.473" lon="-82.638"><name>Central Park Mounds, Ashland (KY)</name><desc>Mounds. Approximate location; search for: Central Park, Ashland, Kentucky</desc></wpt>
  <wpt lat="35.063" lon="-90.131"><name>Chucalissa (C.H. Nash Museum), Memphis (TN)</name><desc>Mounds. Approximate location; search for: Chucalissa, Memphis, Tennessee</desc></wpt>
  <wpt lat="35.486" lon="-86.102"><name>Old Stone Fort (TN)</name><desc>Mounds + effigy / linear. Approximate location; search for: Old Stone Fort State Archaeological Park, Tennessee</desc></wpt>
  <wpt lat="36.124" lon="-87.154"><name>Mound Bottom (TN)</name><desc>Mounds. Approximate location; search for: Mound Bottom, Tennessee</desc></wpt>
  <wpt lat="36.397" lon="-86.32"><name>Castalian Springs Mound (TN)</name><desc>Mounds. Approximate location; search for: Castalian Springs Mound, Tennessee</desc></wpt>
  <wpt lat="35.104" lon="-90.079"><name>Chickasaw Heritage Park, Memphis (TN)</name><desc>Mounds. Approximate location; search for: Chickasaw Heritage Park, Memphis, Tennessee</desc></wpt>
  <wpt lat="35.49" lon="-88.673"><name>Pinson Mounds - Ozier &amp; Twin Mounds (TN)</name><desc>Mounds. Approximate location; search for: Pinson Mounds, Tennessee</desc></wpt>
  <wpt lat="33.427" lon="-83.387"><name>Rock Eagle Effigy Mound (GA)</name><desc>Effigy / linear. Approximate location; search for: Rock Eagle Effigy Mound, Georgia</desc></wpt>
  <wpt lat="33.428" lon="-83.237"><name>Rock Hawk Effigy (GA)</name><desc>Effigy / linear. Approximate location; search for: Rock Hawk Effigy, Georgia</desc></wpt>
  <wpt lat="34.683" lon="-83.712"><name>Nacoochee Mound (GA)</name><desc>Mounds. Approximate location; search for: Nacoochee Mound, Georgia</desc></wpt>
  <wpt lat="32.793" lon="-83.6"><name>Lamar Mounds, Ocmulgee (GA)</name><desc>Mounds. Approximate location; search for: Lamar Mounds, Macon, Georgia</desc></wpt>
  <wpt lat="31.536" lon="-91.387"><name>Grand Village of the Natchez (MS)</name><desc>Mounds. Approximate location; search for: Grand Village of the Natchez, Mississippi</desc></wpt>
  <wpt lat="32.487" lon="-90.322"><name>Pocahontas Mound (MS)</name><desc>Mounds. Approximate location; search for: Pocahontas Mound, Mississippi</desc></wpt>
  <wpt lat="33.984" lon="-88.995"><name>Bynum Mounds, Natchez Trace (MS)</name><desc>Mounds. Approximate location; search for: Bynum Mounds, Mississippi</desc></wpt>
  <wpt lat="34.476" lon="-88.535"><name>Pharr Mounds, Natchez Trace (MS)</name><desc>Mounds. Approximate location; search for: Pharr Mounds, Mississippi</desc></wpt>
  <wpt lat="34.026" lon="-88.93"><name>Owl Creek Mounds (MS)</name><desc>Mounds. Approximate location; search for: Owl Creek Mounds, Mississippi</desc></wpt>
  <wpt lat="32.668" lon="-89.928"><name>Boyd Mounds, Natchez Trace (MS)</name><desc>Mounds. Approximate location; search for: Boyd Mounds, Mississippi</desc></wpt>
  <wpt lat="31.974" lon="-90.927"><name>Mangum Mound, Natchez Trace (MS)</name><desc>Mounds. Approximate location; search for: Mangum Mound, Mississippi</desc></wpt>
  <wpt lat="34.3" lon="-89.965"><name>Batesville Mounds (MS)</name><desc>Mounds. Approximate location; search for: Batesville Mounds, Mississippi</desc></wpt>
  <wpt lat="31.117" lon="-92.06"><name>Marksville Prehistoric Indian Site (LA)</name><desc>Mounds. Approximate location; search for: Marksville State Historic Site, Louisiana</desc></wpt>
  <wpt lat="30.414" lon="-91.18"><name>LSU Campus Mounds (LA)</name><desc>Mounds. Approximate location; search for: LSU Campus Mounds, Baton Rouge, Louisiana</desc></wpt>
  <wpt lat="35.277" lon="-90.555"><name>Parkin Archeological State Park (AR)</name><desc>Mounds. Approximate location; search for: Parkin Archeological State Park, Arkansas</desc></wpt>
  <wpt lat="35.311" lon="-94.57"><name>Spiro Mounds (OK)</name><desc>Mounds. Approximate location; search for: Spiro Mounds, Oklahoma</desc></wpt>
  <wpt lat="31.594" lon="-95.149"><name>Caddo Mounds State Historic Site (TX)</name><desc>Mounds. Approximate location; search for: Caddo Mounds State Historic Site, Texas</desc></wpt>
  <wpt lat="36.693" lon="-89.26"><name>Towosahgy State Historic Site (MO)</name><desc>Mounds. Approximate location; search for: Towosahgy State Historic Site, Missouri</desc></wpt>
  <wpt lat="38.563" lon="-90.233"><name>Sugarloaf Mound, St. Louis (MO)</name><desc>Mounds. Approximate location; search for: Sugarloaf Mound, St. Louis, Missouri</desc></wpt>
  <wpt lat="28.908" lon="-82.638"><name>Crystal River Archaeological State Park (FL)</name><desc>Mounds. Approximate location; search for: Crystal River Archaeological State Park, Florida</desc></wpt>
  <wpt lat="30.5" lon="-84.31"><name>Lake Jackson Mounds (FL)</name><desc>Mounds. Approximate location; search for: Lake Jackson Mounds Archaeological State Park, Florida</desc></wpt>
  <wpt lat="30.518" lon="-83.994"><name>Letchworth-Love Mounds (FL)</name><desc>Mounds. Approximate location; search for: Letchworth-Love Mounds, Florida</desc></wpt>
  <wpt lat="30.406" lon="-86.61"><name>Fort Walton Mound (FL)</name><desc>Mounds. Approximate location; search for: Fort Walton Mound, Fort Walton Beach, Florida</desc></wpt>
  <wpt lat="28.003" lon="-82.673"><name>Safety Harbor Mound, Philippe Park (FL)</name><desc>Mounds. Approximate location; search for: Philippe Park, Safety Harbor, Florida</desc></wpt>
  <wpt lat="27.588" lon="-82.622"><name>Madira Bickel Mound (FL)</name><desc>Mounds. Approximate location; search for: Madira Bickel Mound, Florida</desc></wpt>
  <wpt lat="27.531" lon="-82.626"><name>Portavant Mound, Emerson Point (FL)</name><desc>Mounds. Approximate location; search for: Emerson Point Preserve, Palmetto, Florida</desc></wpt>
  <wpt lat="28.93" lon="-80.827"><name>Turtle Mound, Canaveral NS (FL)</name><desc>Mounds. Approximate location; search for: Turtle Mound, Florida</desc></wpt>
  <wpt lat="26.422" lon="-81.864"><name>Mound Key (FL)</name><desc>Mounds. Approximate location; search for: Mound Key, Florida</desc></wpt>
  <wpt lat="26.787" lon="-81.309"><name>Ortona Indian Mound Park (FL)</name><desc>Mounds. Approximate location; search for: Ortona Indian Mound Park, Florida</desc></wpt>
  <wpt lat="29.204" lon="-83.064"><name>Shell Mound, Cedar Keys (FL)</name><desc>Mounds. Approximate location; search for: Shell Mound, Cedar Key, Florida</desc></wpt>
  <wpt lat="33.537" lon="-80.438"><name>Santee Indian Mound, Fort Watson (SC)</name><desc>Mounds. Approximate location; search for: Santee Indian Mound, South Carolina</desc></wpt>
  <wpt lat="35.185" lon="-83.378"><name>Nikwasi Mound, Franklin (NC)</name><desc>Mounds. Approximate location; search for: Nikwasi Mound, Franklin, North Carolina</desc></wpt>
  <wpt lat="38.367" lon="-81.704"><name>Criel Mound, South Charleston (WV)</name><desc>Mounds. Approximate location; search for: Criel Mound, South Charleston, West Virginia</desc></wpt>
</gpx>
